start=new Date('2023-04-09T00:00:00.000Z').valueOf();
sats=[{"PERIAPSIS":"539.136","MEAN_MOTION_DDOT":"0.0000000000000","TLE_LINE1":"1 52337U 22045G   23098.84845612  .00001310  00000-0  10040-3 0  9996","MEAN_MOTION":"15.08839406","TIME_SYSTEM":"UTC","OBJECT_ID":"2022-045G","OBJECT_TYPE":"PAYLOAD","REF_FRAME":"TEME","CENTER_NAME":"EARTH","REV_AT_EPOCH":"5473","COUNTRY_CODE":"US","ARG_OF_PERICENTER":"76.3466","DECAY_DATE":null,"MEAN_MOTION_DOT":"0.00001310","SEMIMAJOR_AXIS":"6917.882","INCLINATION":"53.2159","FILE":"3883753","CLASSIFICATION_TYPE":"U","NORAD_CAT_ID":"52337","MEAN_ELEMENT_THEORY":"SGP4","MEAN_ANOMALY":"283.7625","TLE_LINE2":"2 52337  53.2159 313.8708 0000883  76.3466 283.7625 15.08839406 54734","RA_OF_ASC_NODE":"313.8708","APOAPSIS":"540.358","ELEMENT_SET_NO":"999","BSTAR":"0.00010040000000","EPOCH":"2023-04-08T20:21:46.608768","ECCENTRICITY":"0.00008830","GP_ID":"229739519","RCS_SIZE":"LARGE","EPHEMERIS_TYPE":"0","PERIOD":"95.438","OBJECT_NAME":"STARLINK-3797","LAUNCH_DATE":"2022-04-29","SITE":"AFETR"},{"PERIAPSIS":"514.133","MEAN_MOTION_DDOT":"0.0000000000000","TLE_LINE1":"1 52338U 22045H   23098.57259924  .00030696  00000-0  15711-2 0  9990","TIME_SYSTEM":"UTC","MEAN_MOTION":"15.16384905","OBJECT_ID":"2022-045H","OBJECT_TYPE":"PAYLOAD","REF_FRAME":"TEME","REV_AT_EPOCH":"5472","COUNTRY_CODE":"US","CENTER_NAME":"EARTH","ARG_OF_PERICENTER":"195.5043","DECAY_DATE":null,"MEAN_MOTION_DOT":"0.00030696","SEMIMAJOR_AXIS":"6894.914","INCLINATION":"53.2159","FILE":"3883527","CLASSIFICATION_TYPE":"U","MEAN_ELEMENT_THEORY":"SGP4","NORAD_CAT_ID":"52338","MEAN_ANOMALY":"164.5836","TLE_LINE2":"2 52338  53.2159 313.2297 0003838 195.5043 164.5836 15.16384905 54727","RA_OF_ASC_NODE":"313.2297","BSTAR":"0.00157110000000","ELEMENT_SET_NO":"999","APOAPSIS":"519.426","EPOCH":"2023-04-08T13:44:32.574336","RCS_SIZE":"LARGE","GP_ID":"229731080","ECCENTRICITY":"0.00038380","PERIOD":"94.963","EPHEMERIS_TYPE":"0","LAUNCH_DATE":"2022-04-29","OBJECT_NAME":"STARLINK-3815","SITE":"AFETR"},{"OBJECT_ID":"2022-045J","OBJECT_TYPE":"PAYLOAD","REF_FRAME":"TEME","COUNTRY_CODE":"US","REV_AT_EPOCH":"5474","CENTER_NAME":"EARTH","ARG_OF_PERICENTER":"92.7800","DECAY_DATE":null,"MEAN_MOTION_DOT":"0.00001034","PERIAPSIS":"538.918","MEAN_MOTION_DDOT":"0.0000000000000","TLE_LINE1":"1 52339U 22045J   23098.88989212  .00001034  00000-0  83047-4 0  9998","TIME_SYSTEM":"UTC","MEAN_MOTION":"15.08837423","EPOCH":"2023-04-08T21:21:26.679168","RCS_SIZE":"LARGE","GP_ID":"229739922","ECCENTRICITY":"0.00012070","PERIOD":"95.438","EPHEMERIS_TYPE":"0","LAUNCH_DATE":"2022-04-29","OBJECT_NAME":"STARLINK-3792","SITE":"AFETR","INCLINATION":"53.2147","SEMIMAJOR_AXIS":"6917.888","CLASSIFICATION_TYPE":"U","FILE":"3883755","NORAD_CAT_ID":"52339","MEAN_ELEMENT_THEORY":"SGP4","MEAN_ANOMALY":"267.3330","TLE_LINE2":"2 52339  53.2147 313.6788 0001207  92.7800 267.3330 15.08837423 54743","RA_OF_ASC_NODE":"313.6788","BSTAR":"0.00008304700000","ELEMENT_SET_NO":"999","APOAPSIS":"540.588"},{"PERIOD":"95.437","EPHEMERIS_TYPE":"0","LAUNCH_DATE":"2022-04-29","OBJECT_NAME":"STARLINK-3818","SITE":"AFETR","EPOCH":"2023-04-08T20:28:23.648736","RCS_SIZE":"LARGE","ECCENTRICITY":"0.00008660","GP_ID":"229739521","MEAN_ANOMALY":"288.0315","TLE_LINE2":"2 52340  53.2153 303.8495 0000866  72.0771 288.0315 15.08845052 54869","RA_OF_ASC_NODE":"303.8495","ELEMENT_SET_NO":"999","BSTAR":"0.00012350000000","APOAPSIS":"540.329","SEMIMAJOR_AXIS":"6917.865","INCLINATION":"53.2153","FILE":"3883753","CLASSIFICATION_TYPE":"U","MEAN_ELEMENT_THEORY":"SGP4","NORAD_CAT_ID":"52340","COUNTRY_CODE":"US","REV_AT_EPOCH":"5486","CENTER_NAME":"EARTH","ARG_OF_PERICENTER":"72.0771","DECAY_DATE":null,"MEAN_MOTION_DOT":"0.00001679","OBJECT_TYPE":"PAYLOAD","OBJECT_ID":"2022-045K","REF_FRAME":"TEME","TLE_LINE1":"1 52340U 22045K   23098.85305149  .00001679  00000-0  12350-3 0  9991","TIME_SYSTEM":"UTC","MEAN_MOTION":"15.08845052","PERIAPSIS":"539.131","MEAN_MOTION_DDOT":"0.0000000000000"},{"REF_FRAME":"TEME","OBJECT_TYPE":"PAYLOAD","OBJECT_ID":"2022-045L","MEAN_MOTION_DOT":"0.00011075","DECAY_DATE":null,"ARG_OF_PERICENTER":"87.3014","CENTER_NAME":"EARTH","COUNTRY_CODE":"US","REV_AT_EPOCH":"5474","MEAN_MOTION_DDOT":"0.0000000000000","PERIAPSIS":"538.991","MEAN_MOTION":"15.08869097","TIME_SYSTEM":"UTC","TLE_LINE1":"1 52341U 22045L   23098.88893153  .00011075  00000-0  71227-3 0  9991","GP_ID":"229739527","ECCENTRICITY":"0.00009620","RCS_SIZE":"LARGE","EPOCH":"2023-04-08T21:20:03.684192","SITE":"AFETR","OBJECT_NAME":"STARLINK-3843","LAUNCH_DATE":"2022-04-29","EPHEMERIS_TYPE":"0","PERIOD":"95.436","NORAD_CAT_ID":"52341","MEAN_ELEMENT_THEORY":"SGP4","CLASSIFICATION_TYPE":"U","FILE":"3883753","INCLINATION":"53.2148","SEMIMAJOR_AXIS":"6917.791","APOAPSIS":"540.322","BSTAR":"0.00071227000000","ELEMENT_SET_NO":"999","RA_OF_ASC_NODE":"313.6337","TLE_LINE2":"2 52341  53.2148 313.6337 0000962  87.3014 272.8088 15.08869097 54744","MEAN_ANOMALY":"272.8088"},{"CLASSIFICATION_TYPE":"U","FILE":"3883753","SEMIMAJOR_AXIS":"6917.868","INCLINATION":"53.2149","MEAN_ELEMENT_THEORY":"SGP4","NORAD_CAT_ID":"52342","TLE_LINE2":"2 52342  53.2149 303.8858 0001102  86.4698 273.6420 15.08843927 54877","MEAN_ANOMALY":"273.6420","APOAPSIS":"540.496","BSTAR":"0.00009280600000","ELEMENT_SET_NO":"999","RA_OF_ASC_NODE":"303.8858","EPOCH":"2023-04-08T20:19:10.641216","ECCENTRICITY":"0.00011020","GP_ID":"229739524","RCS_SIZE":"LARGE","OBJECT_NAME":"STARLINK-3850","LAUNCH_DATE":"2022-04-29","EPHEMERIS_TYPE":"0","PERIOD":"95.437","SITE":"AFETR","PERIAPSIS":"538.971","MEAN_MOTION_DDOT":"0.0000000000000","TLE_LINE1":"1 52342U 22045M   23098.84665094  .00001190  00000-0  92806-4 0  9993","MEAN_MOTION":"15.08843927","TIME_SYSTEM":"UTC","OBJECT_TYPE":"PAYLOAD","OBJECT_ID":"2022-045M","REF_FRAME":"TEME","ARG_OF_PERICENTER":"86.4698","CENTER_NAME":"EARTH","COUNTRY_CODE":"US","REV_AT_EPOCH":"5487","MEAN_MOTION_DOT":"0.00001190","DECAY_DATE":null},{"SITE":"AFETR","OBJECT_NAME":"STARLINK-3849","LAUNCH_DATE":"2022-04-29","EPHEMERIS_TYPE":"0","PERIOD":"95.437","GP_ID":"229731327","ECCENTRICITY":"0.00012900","RCS_SIZE":"LARGE","EPOCH":"2023-04-07T23:57:39.466080","APOAPSIS":"540.620","BSTAR":"0.00014946000000","ELEMENT_SET_NO":"999","RA_OF_ASC_NODE":"317.6822","TLE_LINE2":"2 52343  53.2160 317.6822 0001290  88.1897 271.9243 15.08845693 54611","MEAN_ANOMALY":"271.9243","MEAN_ELEMENT_THEORY":"SGP4","NORAD_CAT_ID":"52343","CLASSIFICATION_TYPE":"U","FILE":"3883527","SEMIMAJOR_AXIS":"6917.863","INCLINATION":"53.2160","MEAN_MOTION_DOT":"0.00002092","DECAY_DATE":null,"ARG_OF_PERICENTER":"88.1897","CENTER_NAME":"EARTH","COUNTRY_CODE":"US","REV_AT_EPOCH":"5461","REF_FRAME":"TEME","OBJECT_TYPE":"PAYLOAD","OBJECT_ID":"2022-045N","MEAN_MOTION":"15.08845693","TIME_SYSTEM":"UTC","TLE_LINE1":"1 52343U 22045N   23097.99837345  .00002092  00000-0  14946-3 0  9999","MEAN_MOTION_DDOT":"0.0000000000000","PERIAPSIS":"538.836"},{"APOAPSIS":"540.449","ELEMENT_SET_NO":"999","BSTAR":"0.00007208100000","RA_OF_ASC_NODE":"307.8132","TLE_LINE2":"2 52344  53.2161 307.8132 0001026  74.5614 285.5491 15.08841856 54748","MEAN_ANOMALY":"285.5491","MEAN_ELEMENT_THEORY":"SGP4","NORAD_CAT_ID":"52344","FILE":"3883527","CLASSIFICATION_TYPE":"U","INCLINATION":"53.2161","SEMIMAJOR_AXIS":"6917.875","SITE":"AFETR","LAUNCH_DATE":"2022-04-29","OBJECT_NAME":"STARLINK-3851","EPHEMERIS_TYPE":"0","PERIOD":"95.437","GP_ID":"229730579","ECCENTRICITY":"0.00010260","RCS_SIZE":"LARGE","EPOCH":"2023-04-07T23:37:47.866656","MEAN_MOTION":"15.08841856","TIME_SYSTEM":"UTC","TLE_LINE1":"1 52344U 22045P   23097.98458179  .00000860  00000-0  72081-4 0  9999","MEAN_MOTION_DDOT":"0.0000000000000","PERIAPSIS":"539.030","MEAN_MOTION_DOT":"0.00000860","DECAY_DATE":null,"ARG_OF_PERICENTER":"74.5614","CENTER_NAME":"EARTH","COUNTRY_CODE":"US","REV_AT_EPOCH":"5474","REF_FRAME":"TEME","OBJECT_TYPE":"PAYLOAD","OBJECT_ID":"2022-045P"},{"PERIAPSIS":"539.064","MEAN_MOTION_DDOT":"0.0000000000000","TLE_LINE1":"1 52345U 22045Q   23098.85673425  .00002139  00000-0  15247-3 0  9991","TIME_SYSTEM":"UTC","MEAN_MOTION":"15.08837153","OBJECT_TYPE":"PAYLOAD","OBJECT_ID":"2022-045Q","REF_FRAME":"TEME","ARG_OF_PERICENTER":"88.9485","REV_AT_EPOCH":"5486","COUNTRY_CODE":"US","CENTER_NAME":"EARTH","MEAN_MOTION_DOT":"0.00002139","DECAY_DATE":null,"CLASSIFICATION_TYPE":"U","FILE":"3883753","INCLINATION":"53.2169","SEMIMAJOR_AXIS":"6917.889","MEAN_ELEMENT_THEORY":"SGP4","NORAD_CAT_ID":"52345","TLE_LINE2":"2 52345  53.2169 303.8305 0000998  88.9485 271.1622 15.08837153 54862","MEAN_ANOMALY":"271.1622","BSTAR":"0.00015247000000","ELEMENT_SET_NO":"999","APOAPSIS":"540.444","RA_OF_ASC_NODE":"303.8305","EPOCH":"2023-04-08T20:33:41.839200","RCS_SIZE":"LARGE","GP_ID":"229739518","ECCENTRICITY":"0.00009980","OBJECT_NAME":"STARLINK-3852","LAUNCH_DATE":"2022-04-29","PERIOD":"95.438","EPHEMERIS_TYPE":"0","SITE":"AFETR"},{"SITE":"AFETR","PERIOD":"95.437","EPHEMERIS_TYPE":"0","LAUNCH_DATE":"2022-04-29","OBJECT_NAME":"STARLINK-3812","RCS_SIZE":"LARGE","ECCENTRICITY":"0.00010010","GP_ID":"229739887","EPOCH":"2023-04-08T20:07:11.939232","RA_OF_ASC_NODE":"303.9155","ELEMENT_SET_NO":"999","BSTAR":"-0.00000607320000","APOAPSIS":"540.427","MEAN_ANOMALY":"273.4424","TLE_LINE2":"2 52346  53.2153 303.9155 0001001  86.6682 273.4424 15.08843719 54871","NORAD_CAT_ID":"52346","MEAN_ELEMENT_THEORY":"SGP4","INCLINATION":"53.2153","SEMIMAJOR_AXIS":"6917.869","CLASSIFICATION_TYPE":"U","FILE":"3883753","DECAY_DATE":null,"MEAN_MOTION_DOT":"-0.00000384","REV_AT_EPOCH":"5487","COUNTRY_CODE":"US","CENTER_NAME":"EARTH","ARG_OF_PERICENTER":"86.6682","REF_FRAME":"TEME","OBJECT_TYPE":"PAYLOAD","OBJECT_ID":"2022-045R","TIME_SYSTEM":"UTC","MEAN_MOTION":"15.08843719","TLE_LINE1":"1 52346U 22045R   23098.83833263 -.00000384  00000-0 -60732-5 0  9991","MEAN_MOTION_DDOT":"0.0000000000000","PERIAPSIS":"539.042"}];
